ONEWEB-0572             
1 55151U 23004M   26157.66045618 -.00000021  00000+0 -86231-4 0  9991
2 55151  87.9141   7.9596 0001821  92.5355 267.5985 13.17647114166095
ONEWEB-0573             
1 55152U 23004N   26157.79576522 -.00000105  00000+0 -29957-3 0  9993
2 55152  87.9157 337.5383 0001787 119.6638 240.4672 13.18685796168325
ONEWEB-0588             
1 55153U 23004P   26157.78901261 -.00000059  00000+0 -18123-3 0  9996
2 55153  87.9155 337.5401 0002223 100.4419 259.6964 13.18685971168327
ONEWEB-0598             
1 55154U 23004Q   26157.86019652  .00000182  00000+0  47675-3 0  9999
2 55154  87.8895  23.1245 0001299 105.5136 254.6135 13.11415365164542
ONEWEB-0599             
1 55155U 23004R   26157.84945620 -.00000004  00000+0 -43565-4 0  9991
2 55155  87.9144   7.9215 0001601  83.4850 276.6464 13.17647989166122
ONEWEB-0614             
1 55156U 23004S   26157.85510861  .00000348  00000+0  94472-3 0  9999
2 55156  87.8898  23.1341 0001984  83.5420 276.5934 13.11416312164482
ONEWEB-0616             
1 55157U 23004T   26157.81571287 -.00000064  00000+0 -19811-3 0  9996
2 55157  87.9147   7.9310 0001295  58.2276 301.8982 13.17649331166336
ONEWEB-0617             
1 55158U 23004U   26157.61436016  .00000509  00000+0  14002-2 0  9993
2 55158  87.8900  23.1730 0002189  87.9361 272.2018 13.11416722164470
ONEWEB-0618             
1 55159U 23004V   26157.54329910  .00005833  00000+0  32777-3 0  9995
2 55159  86.9098 181.9555 0011050 346.3897  13.7044 15.13062902180656
ONEWEB-0619             
1 55160U 23004W   26157.84777710 -.00000086  00000+0 -25491-3 0  9997
2 55160  87.9152   7.9048 0002172  77.2468 282.8906 13.17648390166230
ONEWEB-0620             
1 55161U 23004X   26157.60926264  .00000545  00000+0  15018-2 0  9993
2 55161  87.8895  23.1832 0001780  91.7102 268.4230 13.11419419164448
ONEWEB-0621             
1 55162U 23004Y   26157.86527707 -.00000078  00000+0 -25448-3 0  9993
2 55162  87.8906  23.1196 0002021  82.9956 277.1402 13.11415075164456
ONEWEB-0622             
1 55163U 23004Z   26157.87036419 -.00000241  00000+0 -71553-3 0  9990
2 55163  87.8906  23.1209 0002428  95.2141 264.9264 13.11415239164447
ONEWEB-0623             
1 55164U 23004AA  26157.84271073 -.00000059  00000+0 -18471-3 0  9992
2 55164  87.9140   7.9373 0002615  84.1547 275.9883 13.17648426166225
ONEWEB-0624             
1 55165U 23004AB  26157.60184430  .00000295  00000+0  78028-3 0  9991
2 55165  87.8949 352.6926 0001901  89.4950 270.6397 13.12928440166683
ONEWEB-0625             
1 55166U 23004AC  26157.83259033 -.00000110  00000+0 -31751-3 0  9999
2 55166  87.9142   7.9341 0001782  82.7810 277.3524 13.17648985166212
ONEWEB-0626             
1 55167U 23004AD  26157.82247044 -.00000089  00000+0 -26231-3 0  9990
2 55167  87.9142   7.9360 0001637  99.7597 260.3720 13.17649568166211
ONEWEB-0627             
1 55168U 23004AE  26157.65876776  .00000511  00000+0  12827-2 0  9995
2 55168  87.9149   7.9701 0002468  88.5942 271.5473 13.17647802166196
ONEWEB-0628             
1 55169U 23004AF  26157.80806355 -.00000278  00000+0 -80733-3 0  9993
2 55169  87.8947 352.7178 0002475  83.1762 276.9648 13.12444821166677
ONEWEB-0629             
1 55170U 23004AG  26157.86210928  .00000053  00000+0  10331-3 0  9992
2 55170  87.9140   7.9251 0001997  78.2060 281.9295 13.17650573166223
ONEWEB-0631             
1 55171U 23004AH  26157.78226762 -.00000065  00000+0 -19845-3 0  9991
2 55171  87.9166 337.5062 0002004 104.6831 255.4523 13.18685592168305
ONEWEB-0709             
1 55172U 23004AJ  26157.67538026  .00000178  00000+0  46623-3 0  9996
2 55172  87.8895  23.1724 0001333 108.4846 251.6427 13.11420571164493
ONEWEB-0710             
1 55173U 23004AK  26157.64865248 -.00000117  00000+0 -33493-3 0  9999
2 55173  87.9141   7.9626 0001972  88.6080 271.5278 13.17649443166199
ONEWEB-0711             
1 55174U 23004AL  26157.64656990 -.00000444  00000+0 -12881-2 0  9992
2 55174  87.8895  23.1643 0002513  87.9121 272.2295 13.11416558164451
ONEWEB-0713             
1 55175U 23004AM  26157.66520835 -.00000327  00000+0 -95918-3 0  9996
2 55175  87.8904  23.1631 0002173  86.8574 273.2803 13.11419523164442
ONEWEB-0715             
1 55176U 23004AN  26157.66012365 -.00000544  00000+0 -15702-2 0  9994
2 55176  87.8899  23.1646 0001675 108.1779 251.9532 13.11417510164483
ONEWEB-0716             
1 55177U 23004AP  26157.86971146 -.00000176  00000+0 -48524-3 0  9998
2 55177  87.9143   7.9213 0001650  80.3477 279.7841 13.17648750166229
ONEWEB-0717             
1 55178U 23004AQ  26157.85283130 -.00000284  00000+0 -76436-3 0  9990
2 55178  87.9150   7.9113 0002359  94.4465 265.6936 13.17648932166273
ONEWEB-0719             
1 55179U 23004AR  26157.63515593 -.00000188  00000+0 -51849-3 0  9992
2 55179  87.9147   7.9348 0001831  81.8655 278.2684 13.17648452166193
ONEWEB-0530             
1 55796U 23029A   26157.55973784  .00000094  00000+0  19992-3 0  9992
2 55796  87.9181 276.5882 0002362  95.9219 264.2184 13.20771003159741
